[{"OBJECT_NAME":"SENTINEL-1D","OBJECT_ID":"2025-251A","EPOCH":"2026-03-09T22:39:29.854656","MEAN_MOTION":14.59197847,"ECCENTRICITY":0.00012838,"INCLINATION":98.1825,"RA_OF_ASC_NODE":77.7074,"ARG_OF_PERICENTER":89.3991,"MEAN_ANOMALY":270.7355,"EPHEMERIS_TYPE":0,"CLASSIFICATION_TYPE":"U","NORAD_CAT_ID":66315,"ELEMENT_SET_NO":999,"REV_AT_EPOCH":1825,"BSTAR":3.3692424e-5,"MEAN_MOTION_DOT":1.13e-6,"MEAN_MOTION_DDOT":0},{"OBJECT_NAME":"COSMOS 1900","OBJECT_ID":"1987-101A","EPOCH":"2026-03-09T22:07:19.119648","MEAN_MOTION":14.55625081,"ECCENTRICITY":0.00331725,"INCLINATION":66.0844,"RA_OF_ASC_NODE":303.8552,"ARG_OF_PERICENTER":174.2642,"MEAN_ANOMALY":185.8851,"EPHEMERIS_TYPE":0,"CLASSIFICATION_TYPE":"U","NORAD_CAT_ID":18665,"ELEMENT_SET_NO":999,"REV_AT_EPOCH":3403,"BSTAR":5.4100815e-5,"MEAN_MOTION_DOT":1.34e-6,"MEAN_MOTION_DDOT":0}]
